     2.100          NAVIGATION                              RINEX VERSION / TYPE
fic2rin                                 04/08/2010 00:17:43 PGM / RUN BY / DATE
                                                            END OF HEADER
15 10  4  7  6  0  0.0 -.289668794721D-03  .454747350886D-11  .000000000000D+00
     .520000000000D+02  .426562500000D+02  .452840291187D-08  .244430108243D+01
     .223517417908D-05  .246281467844D-02  .732019543648D-05  .515374872589D+04
     .280800000000D+06 -.931322574615D-08  .232431606720D+01  .372529029846D-07
     .954097082316D+00  .233781250000D+03 -.196449797551D+00 -.810962351266D-08
     .571452374714D-11  .100000000000D+01  .157800000000D+04  .000000000000D+00
     .240000000000D+01  .000000000000D+00 -.977888703346D-08  .520000000000D+02
     .273606000000D+06  .400000000000D+01
16 10  4  7  6  0  0.0 -.589974224567D-04 -.386535248253D-11  .000000000000D+00
     .770000000000D+02 -.800625000000D+02  .443447042778D-08 -.209305628317D+01
    -.417046248913D-05  .584891182370D-02  .736862421036D-05  .515374233055D+04
     .280800000000D+06 -.104308128357D-06 -.182211758628D+01 -.856816768646D-07
     .971214582894D+00  .245250000000D+03 -.256313726370D+00 -.801497671309D-08
     .607168148133D-11  .100000000000D+01  .157800000000D+04  .000000000000D+00
     .240000000000D+01  .000000000000D+00 -.977888703346D-08  .770000000000D+02
     .273606000000D+06  .400000000000D+01
17 10  4  7  6  0  0.0  .142546836287D-03  .261479726760D-11  .000000000000D+00
     .800000000000D+02 -.272812500000D+02  .447482925174D-08  .294456963938D+01
    -.145658850670D-05  .533924647607D-02  .925362110138D-05  .515358870697D+04
     .280800000000D+06 -.353902578354D-07 -.778752344538D+00 -.912696123123D-07
     .960160471063D+00  .199125000000D+03 -.253124770497D+01 -.783532637279D-08
     .671456540289D-10  .100000000000D+01  .157800000000D+04  .000000000000D+00
     .240000000000D+01  .000000000000D+00 -.102445483208D-07  .800000000000D+02
     .273606000000D+06  .400000000000D+01
20 10  4  7  6  0  0.0  .581648200750D-04 -.682121026330D-12  .000000000000D+00
     .770000000000D+02  .183437500000D+02  .504699594192D-08 -.170644229846D+01
     .948086380959D-06  .433984154370D-02  .735186040401D-05  .515363747978D+04
     .280800000000D+06  .108033418655D-06  .126269598068D+01  .298023223877D-07
     .937655765881D+00  .225343750000D+03  .130776215226D+01 -.828284501374D-08
    -.339657005220D-09  .100000000000D+01  .157800000000D+04  .000000000000D+00
     .240000000000D+01  .000000000000D+00 -.791624188423D-08  .770000000000D+02
     .273606000000D+06  .400000000000D+01
21 10  4  7  6  0  0.0 -.517969019711D-04 -.250111042988D-11  .000000000000D+00
     .640000000000D+02  .187812500000D+02  .536343769442D-08 -.738748324473D+00
     .994652509689D-06  .162716881605D-01  .659190118313D-05  .515368374252D+04
     .280800000000D+06  .260770320892D-06  .259539389052D+00  .270083546638D-06
     .933143314605D+00  .235656250000D+03 -.250411023374D+01 -.855928510001D-08
    -.115719105880D-09  .100000000000D+01  .157800000000D+04  .000000000000D+00
     .240000000000D+01  .000000000000D+00 -.121071934700D-07  .640000000000D+02
     .273606000000D+06  .400000000000D+01
22 10  4  7  6  0  0.0  .175092369318D-03 -.682121026330D-12  .000000000000D+00
     .800000000000D+01  .224687500000D+02  .496234955892D-08 -.282208080622D+01
     .108592212200D-05  .514215184376D-02  .749155879021D-05  .515365442467D+04
     .280800000000D+06  .260770320892D-07  .132166774598D+01 -.353902578354D-07
     .935465441045D+00  .222312500000D+03 -.191979378984D+01 -.811212361680D-08
    -.257867884090D-09  .100000000000D+01  .157800000000D+04  .000000000000D+00
     .240000000000D+01  .000000000000D+00 -.176951289177D-07  .800000000000D+01
     .273606000000D+06  .400000000000D+01
23 10  4  7  6  0  0.0  .375045929104D-03 -.125055521494D-11  .000000000000D+00
     .970000000000D+02  .516875000000D+02  .416553065393D-08  .180518239894D+01
     .273622572422D-05  .648027460556D-02  .808946788311D-05  .515371091461D+04
     .280800000000D+06 -.372529029846D-08  .234871680052D+01  .782310962677D-07
     .968302986780D+00  .226187500000D+03  .300327895718D+01 -.794497379719D-08
    -.464305054455D-10  .100000000000D+01  .157800000000D+04  .000000000000D+00
     .240000000000D+01  .000000000000D+00 -.200234353542D-07  .970000000000D+02
     .273606000000D+06  .400000000000D+01
24 10  4  7  6  0  0.0  .277046114206D-03  .318323145621D-11  .000000000000D+00
     .330000000000D+02  .175312500000D+02  .483127267047D-08 -.284746270699D+01
     .756233930588D-06  .573875184637D-02  .717304646969D-05  .515488262749D+04
     .280800000000D+06 -.502914190292D-07  .297099167053D+00  .763684511185D-07
     .949737895115D+00  .234468750000D+03 -.476138391795D+00 -.805533553706D-08
    -.121433629627D-09  .100000000000D+01  .157800000000D+04  .000000000000D+00
     .240000000000D+01  .000000000000D+00 -.139698386192D-08  .330000000000D+02
     .273606000000D+06  .400000000000D+01
26 10  4  7  6  0  0.0 -.364542938769D-04 -.443378667114D-11  .000000000000D+00
     .750000000000D+02  .462187500000D+02  .377015704217D-08  .314995898261D+00
     .257231295109D-05  .194167704321D-01  .740401446819D-05  .515234407234D+04
     .280800000000D+06 -.303611159325D-06  .240502843070D+01  .208616256714D-06
     .990948050175D+00  .256593750000D+03  .107610324029D+01 -.799354724904D-08
    -.214294640518D-10  .100000000000D+01  .157800000000D+04  .000000000000D+00
     .240000000000D+01  .000000000000D+00 -.605359673500D-08  .750000000000D+02
     .273606000000D+06  .400000000000D+01
27 10  4  7  6  0  0.0  .140891410410D-03  .341060513165D-11  .000000000000D+00
     .560000000000D+02  .112812500000D+02  .415874465698D-08  .254956203931D+01
     .456348061562D-06  .215865285136D-01  .414997339249D-05  .515364900017D+04
     .280800000000D+06  .327825546265D-06 -.294936431974D+01 -.141561031342D-06
     .978146757727D+00  .304375000000D+03 -.143753795008D+01 -.771853579371D-08
     .103575742917D-10  .100000000000D+01  .157800000000D+04  .000000000000D+00
     .240000000000D+01  .000000000000D+00 -.419095158577D-08  .560000000000D+02
     .273606000000D+06  .400000000000D+01
28 10  4  7  6  0  0.0 -.190110877156D-04  .795807864051D-12  .000000000000D+00
     .310000000000D+02 -.727187500000D+02  .437661087484D-08 -.267400028397D+01
    -.379234552383D-05  .159366817679D-01  .621005892754D-05  .515367005539D+04
     .280800000000D+06  .275671482086D-06 -.181432868566D+01 -.614672899246D-07
     .969447870858D+00  .261093750000D+03 -.196120371806D+01 -.780246786125D-08
     .925038531568D-10  .100000000000D+01  .157800000000D+04  .000000000000D+00
     .240000000000D+01  .000000000000D+00 -.107102096081D-07  .310000000000D+02
     .273606000000D+06  .400000000000D+01
29 10  4  7  6  0  0.0  .110701657832D-03  .295585778076D-11  .000000000000D+00
     .131000000000D+03 -.160937500000D+02  .457983362560D-08 -.536301856016D+00
    -.707805156708D-06  .303288747091D-02  .929646193981D-05  .515376556206D+04
     .280800000000D+06 -.577419996262D-07 -.770509278073D+00 -.931322574615D-08
     .960482942096D+00  .198468750000D+03 -.131165767636D+01 -.802533428739D-08
     .160006664920D-09  .100000000000D+01  .157800000000D+04  .000000000000D+00
     .240000000000D+01  .000000000000D+00 -.884756445885D-08  .131000000000D+03
     .273606000000D+06  .400000000000D+01
30 10  4  7  6  0  0.0  .231465790421D-03  .341060513165D-11  .000000000000D+00
     .115000000000D+03 -.639687500000D+02  .474841207614D-08 -.220606984714D+01
    -.324659049511D-05  .120461893966D-01  .629387795925D-05  .515375505638D+04
     .280800000000D+06  .165775418282D-06 -.189228757694D+01  .745058059692D-07
     .955250697089D+00  .252812500000D+03  .147633831773D+01 -.800069040373D-08
     .542879755978D-10  .100000000000D+01  .157800000000D+04  .000000000000D+00
     .240000000000D+01  .000000000000D+00 -.791624188423D-08  .115000000000D+03
     .273606000000D+06  .400000000000D+01
31 10  4  7  6  0  0.0 -.435197725892D-04  .204636307899D-11  .000000000000D+00
     .460000000000D+02 -.103125000000D+01  .435196699118D-08  .147577108733D+00
    -.143423676491D-06  .750998302829D-02  .438280403614D-05  .515365913963D+04
     .280800000000D+06 -.782310962677D-07 -.289358386781D+01 -.856816768646D-07
     .976612547261D+00  .299718750000D+03 -.106702923782D+01 -.828463080241D-08
     .165721188667D-09  .100000000000D+01  .157800000000D+04  .000000000000D+00
     .240000000000D+01  .000000000000D+00 -.130385160446D-07  .460000000000D+02
     .273606000000D+06  .400000000000D+01
32 10  4  7  6  0  0.0  .570844858885D-04 -.864019966684D-11  .000000000000D+00
     .550000000000D+02  .190312500000D+02  .461697802995D-08  .972873994278D+00
     .733882188797D-06  .126969044795D-01  .785849988461D-05  .515376373863D+04
     .280800000000D+06  .121071934700D-06  .137892810632D+01 -.314787030220D-06
     .959555277946D+00  .226812500000D+03 -.997392046319D+00 -.816926885427D-08
    -.296083761649D-09  .100000000000D+01  .157800000000D+04  .000000000000D+00
     .240000000000D+01  .000000000000D+00 -.325962901115D-08  .550000000000D+02
     .273606000000D+06  .400000000000D+01
19 10  4  7  5 59 44.0 -.264239497483D-04 -.250111042988D-11  .000000000000D+00
     .100000000000D+01 -.274375000000D+02  .463805033627D-08  .234422871561D+01
    -.122562050819D-05  .633171445224D-02  .942125916481D-05  .515372143173D+04
     .280784000000D+06 -.316649675369D-07 -.723585734490D+00  .201165676117D-06
     .957834936024D+00  .196781250000D+03 -.175219942088D+00 -.795175979414D-08
     .138934358602D-09  .100000000000D+01  .157800000000D+04  .000000000000D+00
     .240000000000D+01  .000000000000D+00 -.149011611938D-07  .100000000000D+01
     .273636000000D+06  .400000000000D+01
